STARLINK-32298          
1 61525U 24183S   24315.91668981 -.00077693  00000+0 -14004-2 0  9994
2 61525  53.1598 240.9633 0001119  85.9041 270.8500 15.49356579  5436
STARLINK-32293          
1 61526U 24183T   24315.91668981 -.00040223  00000+0 -71821-3 0  9995
2 61526  53.1598 240.9597 0001378  90.0523 268.6226 15.49333892  5472
STARLINK-32313          
1 61527U 24183U   24315.91668981 -.00059231  00000+0 -10638-2 0  9993
2 61527  53.1598 240.9515 0001427  95.6020 266.9074 15.49339795  5437
STARLINK-32319          
1 61528U 24183V   24315.91668981 -.00059207  00000+0 -10634-2 0  9993
2 61528  53.1598 240.9553 0001315  92.4256 268.1679 15.49339227  5471
STARLINK-32351          
1 61529U 24183W   24315.91668981 -.00047425  00000+0 -84902-3 0  9993
2 61529  53.1598 240.9474 0001592  84.2943 280.1309 15.49334332  5435
STARLINK-32261          
1 61530U 24183X   24315.91668981 -.01310723  00000+0 -26902-1 0  9994
2 61530  53.1598 240.9449 0000935 107.3848 258.4354 15.48450593  5480
STARLINK-32358          
1 61531U 24183Y   24315.91668981 -.00057792  00000+0 -10376-2 0  9997
2 61531  53.1598 240.9381 0001464  92.5857 275.6726 15.49338923  5385
STARLINK-11354 [DTC]    
1 61532U 24184A   24315.16915994 -.00022596  00000+0 -13458-3 0  9994
2 61532  53.1539 109.5022 0000516  99.0386 261.0693 15.76705332  4258
STARLINK-11323 [DTC]    
1 61533U 24184B   24315.15937641  .00033244  00000+0  20573-3 0  9993
2 61533  53.1551 109.4405 0000627 276.8320  83.2630 15.76793106  4254
STARLINK-11338 [DTC]    
1 61534U 24184C   24315.60800655  .00058278  00000+0  35857-3 0  9993
2 61534  53.1543 107.2616 0000909  67.3425 292.7691 15.76669086  4329
STARLINK-11362 [DTC]    
1 61535U 24184D   24315.78351439  .00001742  00000+0  14685-4 0  9995
2 61535  53.1576 106.2154 0002168 104.7909 255.3352 15.76665707  4352
STARLINK-11295 [DTC]    
1 61536U 24184E   24315.91516800  .00051417  00000+0  31666-3 0  9997
2 61536  53.1570 105.6189 0001225 115.2293 244.8855 15.76699042  4376
STARLINK-11331 [DTC]    
1 61537U 24184F   24315.90535389 -.00027887  00000+0 -16742-3 0  9994
2 61537  53.1581 105.5505 0001530  75.7877 284.3313 15.76663612  4379
STARLINK-11325 [DTC]    
1 61538U 24184G   24315.91668981  .00024303  00000+0  15181-3 0  9995
2 61538  53.1566 105.4390 0001053  47.3136  44.6402 15.76765928  5377
STARLINK-11332 [DTC]    
1 61539U 24184H   24315.44722509 -.00082027  00000+0 -45850-3 0  9996
2 61539  53.1560 107.6661 0000584  56.9775 303.1303 15.78750226  4302
STARLINK-11350 [DTC]    
1 61540U 24184J   24315.91668981 -.00392068  00000+0 -24908-2 0  9992
2 61540  53.1568 105.3249 0001174  56.6747  91.1351 15.76842252  5498
STARLINK-11357 [DTC]    
1 61541U 24184K   24315.91668981 -.00741385  00000+0 -47464-2 0  9995
2 61541  53.1560 105.2697 0001121  42.5697 131.8224 15.77595230  5333
STARLINK-11322 [DTC]    
1 61542U 24184L   24315.91668981 -.00741257  00000+0 -43989-2 0  9992
2 61542  53.1556 105.2258 0001067  43.6585 152.1819 15.79267714  5329
STARLINK-11364 [DTC]    
1 61543U 24184M   24315.91668981 -.00742281  00000+0 -40784-2 0  9991
2 61543  53.1557 105.1943 0001091  45.1930 165.9863 15.80940472  5444
STARLINK-11349 [DTC]    
1 61544U 24184N   24315.94121310 -.00203052  00000+0 -95301-3 0  9999
2 61544  53.1569 105.0500 0001041 148.4100 211.6986 15.82936381  4380
STARLINK-32406          
1 61545U 24184P   24315.00001157  .00065253  00000+0  11321-2 0  9999
2 61545  53.1582 112.0650 0000942  91.1593 259.0298 15.50280939  5232
STARLINK-32445          
1 61546U 24184Q   24315.71160923  .00000231  00000+0  11885-4 0  9997
2 61546  53.1600 108.6633 0001685  87.3981 272.7221 15.50334310  4318
STARLINK-32411          
1 61547U 24184R   24315.71126639 -.00003204  00000+0 -47751-4 0  9990
2 61547  53.1596 108.6617 0000246  29.1527 330.9497 15.50322230  4317
STARLINK-32424          
1 61548U 24184S   24315.71057530  .00003438  00000+0  67435-4 0  9992
2 61548  53.1598 108.6565 0001062  86.7147 273.3984 15.50343728  4312
STARLINK-32389          
1 61549U 24184T   24315.91668981  .00141577  00000+0  34935-2 0  9997
2 61549  53.1592 107.8026 0000862  85.8468 279.0158 15.39537557  5378
STARLINK-32476          
1 61550U 24184U   24315.70955206 -.00003657  00000+0 -55579-4 0  9992
2 61550  53.1588 108.6516 0001246  98.2771 261.8380 15.50325027  4319
STARLINK-32366          
1 61551U 24184V   24315.91668981 -.01483330  00000+0 -33160-1 0  9997
2 61551  53.1594 107.6887 0001134  50.0555  12.0936 15.45888435  5437
GAOFEN-12 05            
1 61571U 24186A   24315.90949319  .00002328  00000+0  31226-3 0  9991
2 61571  97.9146 320.8851 0001534 112.6340 247.5034 14.80318139  3023
CZ-4C R/B               
1 61572U 24186B   24315.93074751  .00009461  00000+0  68343-3 0  9999
2 61572  97.8977 321.7404 0049061 320.5222  39.2432 15.03326735  3895
STARLINK-11356 [DTC]    
1 61574U 24187A   24315.01270543  .00054280  00000+0  33240-3 0  9995
2 61574  53.1573 167.2042 0001437 316.4114  43.6793 15.76804911  4633
STARLINK-11376 [DTC]    
1 61575U 24187B   24315.00782090  .00056630  00000+0  34646-3 0  9992
2 61575  53.1567 167.1707 0001133 305.4603  54.6312 15.76809523  4552
STARLINK-11372 [DTC]    
1 61576U 24187C   24315.70022090  .00098336  00000+0  60005-3 0  9994
2 61576  53.1558 163.6676 0000786  86.2068 273.9043 15.76647030  4719
STARLINK-11375 [DTC]    
1 61577U 24187D   24315.69534352 -.00027432  00000+0 -16476-3 0  9996
2 61577  53.1567 163.6326 0000306 265.9903  94.1083 15.76647511  4715
STARLINK-11285 [DTC]    
1 61578U 24187E   24315.69046340  .00049731  00000+0  30710-3 0  9993
2 61578  53.1561 163.6017 0000354 168.5672 191.5357 15.76652444  4662
STARLINK-11275 [DTC]    
1 61579U 24187F   24315.87573799 -.00017103  00000+0 -10098-3 0  9994
2 61579  53.1571 162.6215 0002322  88.5604 271.5683 15.76661886  4690
STARLINK-11342 [DTC]    
1 61580U 24187G   24315.87085553 -.00015579  00000+0 -91599-4 0  9993
2 61580  53.1572 162.5877 0002715  88.9013 271.2319 15.76661227  4793
STARLINK-11374 [DTC]    
1 61581U 24187H   24315.86553349  .00040213  00000+0  24811-3 0  9999
2 61581  53.1570 162.5511 0001778 100.8320 259.2901 15.76766391  4791
STARLINK-11373 [DTC]    
1 61582U 24187J   24315.86066789 -.00013042  00000+0 -75955-4 0  9995
2 61582  53.1570 162.5177 0001229  87.2847 272.8314 15.76685055  4744
STARLINK-11368 [DTC]    
1 61583U 24187K   24315.85578495 -.00004967  00000+0 -26387-4 0  9998
2 61583  53.1571 162.4858 0001381  97.7787 262.3391 15.76710319  4694
STARLINK-11370 [DTC]    
1 61584U 24187L   24315.85090006 -.00002506  00000+0 -11328-4 0  9992
2 61584  53.1574 162.4517 0001564 117.0423 243.0758 15.76696033  4741
STARLINK-11361 [DTC]    
1 61585U 24187M   24315.91668981 -.00054632  00000+0 -33121-3 0  9994
2 61585  53.1566 162.0683 0000994  98.4573 303.0358 15.76778399  4780
STARLINK-11360 [DTC]    
1 61586U 24187N   24315.91668981  .00198152  00000+0  11939-2 0  9991
2 61586  53.1564 162.0108 0000058  92.0885 337.2638 15.76590056  4836
STARLINK-32353          
1 61587U 24187P   24315.91668981 -.00040316  00000+0 -69435-3 0  9997
2 61587  53.1602 163.6635 0001068  93.8456 246.6110 15.50352610  4840
STARLINK-32325          
1 61588U 24187Q   24315.91668981 -.01509093  00000+0 -29696-1 0  9994
2 61588  53.1602 163.6686 0000775  79.3108 258.9046 15.49577190  4893
STARLINK-32416          
1 61589U 24187R   24315.91668981 -.00020135  00000+0 -34205-3 0  9993
2 61589  53.1602 163.6600 0000886  89.7562 252.6116 15.50344911  4896
STARLINK-32413          
1 61590U 24187S   24315.91668981 -.00022957  00000+0 -39128-3 0  9998
2 61590  53.1602 163.6557 0001032  81.6404 262.6470 15.50341217  4899
STARLINK-32409          
1 61591U 24187T   24315.91668981 -.00034167  00000+0 -58688-3 0  9997
2 61591  53.1602 163.6514 0001171  97.5836 248.6236 15.50348103  4897
STARLINK-32422          
1 61592U 24187U   24315.91668981 -.00029017  00000+0 -49694-3 0  9993
2 61592  53.1602 163.6473 0001325  94.5537 253.5678 15.50345690  4891
STARLINK-32397          
1 61593U 24187V   24315.91668981 -.01084439  00000+0 -20534-1 0  9994
2 61593  53.1603 163.6428 0001022  92.7688 257.2266 15.50637890  4894
ONEWEB-0015             
1 61594U 24188A   24315.84257702  .00005786  00000+0  70854-3 0  9990
2 61594  86.5773 161.2164 0006419 129.9825 230.1963 14.83022619  6174
ONEWEB-0687             
1 61595U 24188B   24315.84250361  .00005793  00000+0  71392-3 0  9991
2 61595  86.5790 161.2150 0005631 127.1070 233.0668 14.82763537  6170
ONEWEB-0688             
1 61596U 24188C   24315.91274367  .00006802  00000+0  83966-3 0  9994
2 61596  86.5801 161.1956 0005152 126.8036 233.3660 14.82718950  6188
ONEWEB-0689             
1 61597U 24188D   24315.84827267  .00006214  00000+0  76136-3 0  9998
2 61597  86.5729 161.2178 0003366 120.8450 239.3104 14.83021986  6179
ONEWEB-0690             
1 61598U 24188E   24315.83535481  .00006046  00000+0  73762-3 0  9997
2 61598  86.5787 161.2096 0007107 130.8887 229.2953 14.83178795  6176
ONEWEB-0691             
1 61599U 24188F   24315.84004499  .00006121  00000+0  75432-3 0  9999
2 61599  86.5823 161.2223 0006184 131.3284 228.8472 14.82769052  6173
ONEWEB-0692             
1 61600U 24188G   24315.85181718  .00006185  00000+0  75785-3 0  9994
2 61600  86.5752 161.2304 0003094 134.8631 225.2843 14.83017283  6174
ONEWEB-0693             
1 61601U 24188H   24315.84914945  .00010698  00000+0  13095-2 0  9999
2 61601  86.5715 161.2163 0003383 121.2415 238.9140 14.83110605  6171
ONEWEB-0695             
1 61602U 24188J   24315.85028498  .00001130  00000+0  13622-3 0  9998
2 61602  86.5771 161.2313 0003210 117.5223 242.6327 14.82887311  6178
